{"fetched_at":"2026-07-14T17:40:59.933Z","source":"https://celestrak.org/NORAD/elements/gp.php?NAME=PLEIADES&FORMAT=JSON","constellation":"pleiades-neo","records":[{"OBJECT_NAME":"PLEIADES NEO 3","OBJECT_ID":"2021-034A","EPOCH":"2026-07-14T04:45:58.574304","CLASSIFICATION_TYPE":"U","MEAN_MOTION":14.81666986,"ECCENTRICITY":0.000138,"INCLINATION":97.8945,"RA_OF_ASC_NODE":269.5765,"ARG_OF_PERICENTER":91.4673,"MEAN_ANOMALY":268.6698,"EPHEMERIS_TYPE":0,"NORAD_CAT_ID":48268,"ELEMENT_SET_NO":999,"REV_AT_EPOCH":28165,"BSTAR":-0.000046054,"MEAN_MOTION_DOT":-0.00000414,"MEAN_MOTION_DDOT":0},{"OBJECT_NAME":"PLEIADES NEO 4","OBJECT_ID":"2021-073E","EPOCH":"2026-07-14T03:57:21.070080","CLASSIFICATION_TYPE":"U","MEAN_MOTION":14.81671582,"ECCENTRICITY":0.0001304,"INCLINATION":97.8944,"RA_OF_ASC_NODE":269.539,"ARG_OF_PERICENTER":94.9909,"MEAN_ANOMALY":265.1452,"EPHEMERIS_TYPE":0,"NORAD_CAT_ID":49070,"ELEMENT_SET_NO":999,"REV_AT_EPOCH":26536,"BSTAR":0.00011389,"MEAN_MOTION_DOT":0.00000844,"MEAN_MOTION_DDOT":0}]}
